1 33500U 09002J   21301.81899246  .00000837  00000-0  96653-4 0  9997
2 33500  98.1018 229.8803 0048463 321.0939  38.6792 14.87667554691660
1 33500U 09002J   21302.08803268  .00000843  00000-0  97335-4 0  9991
2 33500  98.1019 230.1551 0048442 320.2105  39.5562 14.87667961691712
1 33500U 09002J   21302.55885300  .00001072  00000-0  12192-3 0  9992
2 33500  98.1020 230.6358 0048411 318.6421  41.1133 14.87669805691770
1 33500U 09002J   21302.69337281  .00001123  00000-0  12738-3 0  9990
2 33500  98.1020 230.7732 0048404 318.1884  41.5637 14.87670361691791
1 33500U 09002J   21303.56775232  .00001061  00000-0  12076-3 0  9995
2 33500  98.1021 231.6660 0048348 315.2673  44.4647 14.87671512691920
1 33500U 09002J   21303.56775232  .00001061  00000-0  12076-3 0  9995
2 33500  98.1021 231.6660 0048348 315.2673  44.4647 14.87671512691931
1 33500U 09002J   21303.83679204  .00001051  00000-0  11972-3 0  9990
2 33500  98.1021 231.9407 0048332 314.3735  45.3526 14.87671966691967
1 33500U 09002J   21304.37487096  .00000995  00000-0  11363-3 0  9996
2 33500  98.1023 232.4902 0048286 312.5831  47.1314 14.87672762692040
1 33500U 09002J   21305.04746909  .00000996  00000-0  11373-3 0  9994
2 33500  98.1024 233.1770 0048248 310.3493  49.3513 14.87674193692157
1 33500U 09002J   21305.51828785  .00000960  00000-0  10989-3 0  9992
2 33500  98.1024 233.6578 0048216 308.7850  50.9063 14.87674898692218
1 33500U 09002J   21305.78732707  .00000929  00000-0  10652-3 0  9991
2 33500  98.1025 233.9325 0048204 307.8953  51.7908 14.87675249692255
1 33500U 09002J   21306.05636611  .00000912  00000-0  10476-3 0  9995
2 33500  98.1025 234.2072 0048182 307.0071  52.6740 14.87675692692308
1 33500U 09002J   21306.25814474  .00001082  00000-0  12299-3 0  9996
2 33500  98.1026 234.4133 0048166 306.3411  53.3363 14.87677212692322
1 33500U 09002J   21306.52718363  .00001170  00000-0  13244-3 0  9995
2 33500  98.1026 234.6881 0048153 305.4470  54.2255 14.87678181692365
1 33500U 09002J   21307.40155883  .00001331  00000-0  14981-3 0  9993
2 33500  98.1027 235.5810 0048108 302.5372  57.1201 14.87680984692500
1 33500U 09002J   21307.53607798  .00001327  00000-0  14935-3 0  9998
2 33500  98.1027 235.7184 0048098 302.0881  57.5670 14.87681255692511
1 33500U 09002J   21308.54496503  .00002522  00000-0  27774-3 0  9993
2 33500  98.1028 236.7487 0048043 298.7280  60.9112 14.87691793692666
1 33500U 09002J   21308.54496503  .00002522  00000-0  27774-3 0  9993
2 33500  98.1028 236.7487 0048043 298.7280  60.9112 14.87691793692677
1 33500U 09002J   21309.35208468  .00001014  00000-0  11574-3 0  9990
2 33500  98.1030 237.5729 0048007 296.0154  63.6122 14.87683619692780
1 33500U 09002J   21309.35208468  .00001014  00000-0  11574-3 0  9990
2 33500  98.1030 237.5729 0048007 296.0154  63.6122 14.87683619692791
1 33500U 09002J   21309.82290030  .00000984  00000-0  11252-3 0  9996
2 33500  98.1031 238.0537 0047991 294.4192  65.2020 14.87684578692857
1 33500U 09002J   21310.09193780  .00000966  00000-0  11053-3 0  9990
2 33500  98.1032 238.3285 0047973 293.5254  66.0925 14.87685085692891
1 33500U 09002J   21310.36097523  .00000942  00000-0  10797-3 0  9996
2 33500  98.1032 238.6033 0047973 292.6079  67.0065 14.87685570692930
1 33500U 09002J   21310.36097523  .00000942  00000-0  10797-3 0  9996
2 33500  98.1032 238.6033 0047973 292.6079  67.0065 14.87685570692941
1 33500U 09002J   21311.36986503  .00000837  00000-0  96709-4 0  9993
2 33500  98.1034 239.6337 0047938 289.2083  70.3948 14.87687272693083
1 33500U 09002J   21311.36986503  .00000837  00000-0  96709-4 0  9993
2 33500  98.1034 239.6337 0047938 289.2083  70.3948 14.87687272693094
1 33500U 09002J   21311.84067992  .00000766  00000-0  89006-4 0  9991
2 33500  98.1035 240.1146 0047921 287.6286  71.9699 14.87687949693157
1 33500U 09002J   21312.04245771  .00000747  00000-0  86974-4 0  9997
2 33500  98.1036 240.3206 0047909 286.9555  72.6413 14.87688277693184
1 33500U 09002J   21312.31149470  .00000711  00000-0  83124-4 0  9991
2 33500  98.1036 240.5954 0047893 286.0511  73.5434 14.87688702693222
1 33500U 09002J   21313.05134611  .00000646  00000-0  76182-4 0  9997
2 33500  98.1037 241.3510 0047869 283.5724  76.0162 14.87689886693344
1 33500U 09002J   21313.52216041  .00000610  00000-0  72283-4 0  9996
2 33500  98.1038 241.8319 0047855 281.9918  77.5935 14.87690649693409
1 33500U 09002J   21313.85845630  .00000587  00000-0  69815-4 0  9994
2 33500  98.1039 242.1754 0047846 280.8702  78.7131 14.87691157693457
1 33500U 09002J   21314.39652951  .00000581  00000-0  69108-4 0  9995
2 33500  98.1039 242.7250 0047830 279.0659  80.5145 14.87692096693547
1 33500U 09002J   21314.86734364  .00000512  00000-0  61785-4 0  9993
2 33500  98.1040 243.2058 0047826 277.4909  82.0875 14.87692443693606
1 33500U 09002J   21315.40541671  .00000505  00000-0  61005-4 0  9998
2 33500  98.1040 243.7554 0047816 275.6839  83.8925 14.87693167693691
1 33500U 09002J   21315.53993496  .00000492  00000-0  59629-4 0  9992
2 33500  98.1041 243.8928 0047816 275.2277  84.3483 14.87693262693703
1 33500U 09002J   21315.87623053  .00000473  00000-0  57538-4 0  9994
2 33500  98.1041 244.2363 0047819 274.1029  85.4722 14.87693602693758
1 33500U 09002J   21316.41430353  .00000459  00000-0  56028-4 0  9991
2 33500  98.1042 244.7859 0047816 272.2905  87.2836 14.87694112693846
1 33500U 09002J   21316.54882173  .00000446  00000-0  54665-4 0  9997
2 33500  98.1042 244.9233 0047817 271.8346  87.7393 14.87694184693852
1 33500U 09002J   21316.81785814  .00000442  00000-0  54252-4 0  9999
2 33500  98.1042 245.1981 0047821 270.9320  88.6416 14.87694470693890
1 33500U 09002J   21317.55770830  .00000414  00000-0  51213-4 0  9996
2 33500  98.1043 245.9539 0047817 268.4411  91.1327 14.87695031694004
1 33500U 09002J   21317.75948561  .00000407  00000-0  50425-4 0  9992
2 33500  98.1043 246.1599 0047817 267.7648  91.8091 14.87695195694047
1 33500U 09002J   21317.82674473  .00000373  00000-0  46824-4 0  9998
2 33500  98.1043 246.2286 0047819 267.5349  92.0392 14.87695075694043
1 33500U 09002J   21318.36481744  .00000403  00000-0  49981-4 0  9996
2 33500  98.1044 246.7783 0047813 265.7198  93.8553 14.87695765694120
1 33500U 09002J   21318.83563109  .00000354  00000-0  44729-4 0  9994
2 33500  98.1045 247.2592 0047811 264.1383  95.4381 14.87695960694193
1 33500U 09002J   21319.03740834  .00000345  00000-0  43824-4 0  9994
2 33500  98.1045 247.4653 0047810 263.4540  96.1231 14.87696105694238
1 33500U 09002J   21319.37370376  .00000381  00000-0  47664-4 0  9997
2 33500  98.1046 247.8088 0047806 262.3212  97.2573 14.87696642694275
1 33500U 09002J   21319.84451713  .00000371  00000-0  46589-4 0  9998
2 33500  98.1046 248.2897 0047812 260.7361  98.8446 14.87697105694341
1 33500U 09002J   21320.38258944  .00000410  00000-0  50760-4 0  9990
2 33500  98.1047 248.8393 0047808 258.9230 100.6607 14.87697927694431
1 33500U 09002J   21320.51710764  .00000392  00000-0  48800-4 0  9999
2 33500  98.1047 248.9768 0047807 258.4718 101.1128 14.87697926694447
1 33500U 09002J   21320.78614382  .00000389  00000-0  48539-4 0  9992
2 33500  98.1048 249.2516 0047805 257.5688 102.0176 14.87698200694480
1 33500U 09002J   21321.32421615  .00000374  00000-0  46917-4 0  9990
2 33500  98.1049 249.8012 0047798 255.7656 103.8248 14.87698668694560
1 33500U 09002J   21321.86228839  .00000375  00000-0  47026-4 0  9995
2 33500  98.1049 250.3508 0047810 253.9630 105.6317 14.87699165694654
1 33500U 09002J   21322.26584247  .00000362  00000-0  45598-4 0  9996
2 33500  98.1050 250.7631 0047810 252.6108 106.9876 14.87699495694709
1 33500U 09002J   21322.87117356  .00000345  00000-0  43797-4 0  9996
2 33500  98.1051 251.3814 0047822 250.5859 109.0185 14.87699919694790
1 33500U 09002J   21323.07295058  .00000343  00000-0  43604-4 0  9990
2 33500  98.1052 251.5876 0047825 249.9132 109.6933 14.87700068694830
1 33500U 09002J   21323.27472759  .00000374  00000-0  46927-4 0  9992
2 33500  98.1052 251.7937 0047830 249.2344 110.3743 14.87700408694852
1 33500U 09002J   21323.54376357  .00000382  00000-0  47780-4 0  9996
2 33500  98.1053 252.0685 0047838 248.3329 111.2789 14.87700639694898
1 33500U 09002J   21324.08183544  .00000346  00000-0  43858-4 0  9992
2 33500  98.1054 252.6181 0047852 246.5297 113.0885 14.87700884694985
1 33500U 09002J   21324.55264835  .00000371  00000-0  46516-4 0  9999
2 33500  98.1054 253.0991 0047872 244.9480 114.6762 14.87701337695040
1 33500U 09002J   21324.82168422  .00000357  00000-0  45023-4 0  9990
2 33500  98.1055 253.3739 0047884 244.0488 115.5790 14.87701495695086
1 33500U 09002J   21325.09072013  .00000353  00000-0  44643-4 0  9993
2 33500  98.1055 253.6488 0047888 243.1425 116.4891 14.87701663695130
1 33500U 09002J   21325.56153288  .00000358  00000-0  45205-4 0  9999
2 33500  98.1056 254.1298 0047906 241.5581 118.0804 14.87702047695197
1 33500U 09002J   21325.83056866  .00000388  00000-0  48397-4 0  9991
2 33500  98.1057 254.4046 0047918 240.6566 118.9858 14.87702459695238
1 33500U 09002J   21326.83945289  .00000339  00000-0  43062-4 0  9998
2 33500  98.1058 255.4353 0047954 237.2664 122.3925 14.87703075695398
1 33500U 09002J   21327.31026547  .00000336  00000-0  42727-4 0  9993
2 33500  98.1059 255.9163 0047962 235.6791 123.9881 14.87703507695450
1 33500U 09002J   21327.84833683  .00000352  00000-0  44447-4 0  9997
2 33500  98.1060 256.4660 0047983 233.8779 125.7990 14.87704105695534
1 33500U 09002J   21327.84833683  .00000352  00000-0  44447-4 0  9997
2 33500  98.1060 256.4660 0047983 233.8779 125.7990 14.87704105695545
1 33500U 09002J   21328.31914924  .00000336  00000-0  42770-4 0  9997
2 33500  98.1061 256.9469 0047998 232.2953 127.3906 14.87704483695602
1 33500U 09002J   21328.85722040  .00000331  00000-0  42201-4 0  9996
2 33500  98.1061 257.4966 0048028 230.5029 129.1935 14.87704967695687
1 33500U 09002J   21329.05899710  .00000328  00000-0  41960-4 0  9995
2 33500  98.1062 257.7028 0048032 229.8262 129.8744 14.87705131695729
